{
  "type": "FeatureCollection",
  "features": [
    {
      "type": "Feature",
      "properties": {
        "norad_id": 38867,
        "name": "INTELSAT 23 (IS-23)",
        "group": "intelsat",
        "lat": 0.036043106683028917,
        "lon": 136.1767885111662,
        "alt_km": 35787.490686085046,
        "timestamp": "2025-12-07T07:31:35.970716+00:00",
        "meta_object_name": "INTELSAT 23 (IS-23)",
        "meta_object_id": "2012-057A",
        "meta_epoch": "2025-12-06T11:42:00.871776",
        "meta_mean_motion": 1.00267666,
        "meta_eccentricity": 0.00016876,
        "meta_inclination": 0.0474,
        "meta_ra_of_asc_node": 98.6565,
        "meta_arg_of_pericenter": 128.5865,
        "meta_mean_anomaly": 330.7637,
        "meta_ephemeris_type": 0,
        "meta_classification_type": "U",
        "meta_norad_cat_id": 38867,
        "meta_element_set_no": 999,
        "meta_rev_at_epoch": 4802,
        "meta_bstar": 0,
        "meta_mean_motion_dot": -2.78e-06,
        "meta_mean_motion_ddot": 0,
        "tle_line1": "1 38867U 12057A   25340.48751009 -.00000278  00000+0  00000+0 0  9991",
        "tle_line2": "2 38867   0.0474  98.6565 0001687 128.5865 330.7637  1.00267666 48022"
      },
      "geometry": {
        "type": "Point",
        "coordinates": [
          136.1767885111662,
          0.036043106683028917
        ]
      }
    },
    {
      "type": "Feature",
      "properties": {
        "norad_id": 39360,
        "name": "FM-6",
        "group": "intelsat",
        "lat": 0.009147212437789203,
        "lon": 73.04985182166175,
        "alt_km": 35788.82800342396,
        "timestamp": "2025-12-07T07:31:35.970728+00:00",
        "meta_object_name": "FM-6",
        "meta_object_id": "2013-058A",
        "meta_epoch": "2025-12-06T21:40:25.667904",
        "meta_mean_motion": 1.00269931,
        "meta_eccentricity": 0.00030394,
        "meta_inclination": 0.0018,
        "meta_ra_of_asc_node": 52.0479,
        "meta_arg_of_pericenter": 121.0655,
        "meta_mean_anomaly": 111.7842,
        "meta_ephemeris_type": 0,
        "meta_classification_type": "U",
        "meta_norad_cat_id": 39360,
        "meta_element_set_no": 999,
        "meta_rev_at_epoch": 4414,
        "meta_bstar": 0,
        "meta_mean_motion_dot": -1.1e-07,
        "meta_mean_motion_ddot": 0,
        "tle_line1": "1 39360U 13058A   25340.90307486 -.00000011  00000+0  00000+0 0  9990",
        "tle_line2": "2 39360   0.0018  52.0479 0003039 121.0655 111.7842  1.00269931 44142"
      },
      "geometry": {
        "type": "Point",
        "coordinates": [
          73.04985182166175,
          0.009147212437789203
        ]
      }
    },
    {
      "type": "Feature",
      "properties": {
        "norad_id": 40271,
        "name": "INTELSAT 30 (IS-30)",
        "group": "intelsat",
        "lat": 0.03345769537660026,
        "lon": 94.17141306691833,
        "alt_km": 35782.120121343585,
        "timestamp": "2025-12-07T07:31:35.970740+00:00",
        "meta_object_name": "INTELSAT 30 (IS-30)",
        "meta_object_id": "2014-062A",
        "meta_epoch": "2025-12-06T21:46:25.093632",
        "meta_mean_motion": 1.00269108,
        "meta_eccentricity": 0.0001117,
        "meta_inclination": 0.014,
        "meta_ra_of_asc_node": 17.4441,
        "meta_arg_of_pericenter": 74.1595,
        "meta_mean_anomaly": 215.8838,
        "meta_ephemeris_type": 0,
        "meta_classification_type": "U",
        "meta_norad_cat_id": 40271,
        "meta_element_set_no": 999,
        "meta_rev_at_epoch": 485,
        "meta_bstar": 0,
        "meta_mean_motion_dot": -1.45e-06,
        "meta_mean_motion_ddot": 0,
        "tle_line1": "1 40271U 14062A   25340.90723488 -.00000145  00000+0  00000+0 0  9991",
        "tle_line2": "2 40271   0.0140  17.4441 0001117  74.1595 215.8838  1.00269108  4852"
      },
      "geometry": {
        "type": "Point",
        "coordinates": [
          94.17141306691833,
          0.03345769537660026
        ]
      }
    },
    {
      "type": "Feature",
      "properties": {
        "norad_id": 40333,
        "name": "DIRECTV 14",
        "group": "intelsat",
        "lat": 0.039559136525044704,
        "lon": 90.00618842205782,
        "alt_km": 35787.54097013073,
        "timestamp": "2025-12-07T07:31:35.970751+00:00",
        "meta_object_name": "DIRECTV 14",
        "meta_object_id": "2014-078B",
        "meta_epoch": "2025-12-06T21:45:17.700768",
        "meta_mean_motion": 1.00270142,
        "meta_eccentricity": 3.39e-05,
        "meta_inclination": 0.0178,
        "meta_ra_of_asc_node": 339.7021,
        "meta_arg_of_pericenter": 243.8645,
        "meta_mean_anomaly": 79.476,
        "meta_ephemeris_type": 0,
        "meta_classification_type": "U",
        "meta_norad_cat_id": 40333,
        "meta_element_set_no": 999,
        "meta_rev_at_epoch": 4011,
        "meta_bstar": 0,
        "meta_mean_motion_dot": -1.2e-06,
        "meta_mean_motion_ddot": 0,
        "tle_line1": "1 40333U 14078B   25340.90645487 -.00000120  00000+0  00000+0 0  9992",
        "tle_line2": "2 40333   0.0178 339.7021 0000339 243.8645  79.4760  1.00270142 40119"
      },
      "geometry": {
        "type": "Point",
        "coordinates": [
          90.00618842205782,
          0.039559136525044704
        ]
      }
    },
    {
      "type": "Feature",
      "properties": {
        "norad_id": 40663,
        "name": "DIRECTV 15",
        "group": "intelsat",
        "lat": 0.024763628904829808,
        "lon": 86.36578072249604,
        "alt_km": 35788.12910811138,
        "timestamp": "2025-12-07T07:31:35.970763+00:00",
        "meta_object_name": "DIRECTV 15",
        "meta_object_id": "2015-026A",
        "meta_epoch": "2025-12-06T21:44:10.308768",
        "meta_mean_motion": 1.00270123,
        "meta_eccentricity": 4.561e-05,
        "meta_inclination": 0.0385,
        "meta_ra_of_asc_node": 80.1364,
        "meta_arg_of_pericenter": 150.8974,
        "meta_mean_anomaly": 68.0869,
        "meta_ephemeris_type": 0,
        "meta_classification_type": "U",
        "meta_norad_cat_id": 40663,
        "meta_element_set_no": 999,
        "meta_rev_at_epoch": 3853,
        "meta_bstar": 0,
        "meta_mean_motion_dot": -9.7e-07,
        "meta_mean_motion_ddot": 0,
        "tle_line1": "1 40663U 15026A   25340.90567487 -.00000097  00000+0  00000+0 0  9998",
        "tle_line2": "2 40663   0.0385  80.1364 0000456 150.8974  68.0869  1.00270123 38530"
      },
      "geometry": {
        "type": "Point",
        "coordinates": [
          86.36578072249604,
          0.024763628904829808
        ]
      }
    },
    {
      "type": "Feature",
      "properties": {
        "norad_id": 40664,
        "name": "SKY MEXICO-1",
        "group": "intelsat",
        "lat": 0.027612582751444695,
        "lon": 110.45432339012906,
        "alt_km": 35797.33875979282,
        "timestamp": "2025-12-07T07:31:35.970775+00:00",
        "meta_object_name": "SKY MEXICO-1",
        "meta_object_id": "2015-026B",
        "meta_epoch": "2025-12-06T21:51:02.150784",
        "meta_mean_motion": 1.00271227,
        "meta_eccentricity": 0.00027824,
        "meta_inclination": 0.0142,
        "meta_ra_of_asc_node": 35.1874,
        "meta_arg_of_pericenter": 235.3287,
        "meta_mean_anomaly": 54.4203,
        "meta_ephemeris_type": 0,
        "meta_classification_type": "U",
        "meta_norad_cat_id": 40664,
        "meta_element_set_no": 999,
        "meta_rev_at_epoch": 3852,
        "meta_bstar": 0,
        "meta_mean_motion_dot": -2.29e-06,
        "meta_mean_motion_ddot": 0,
        "tle_line1": "1 40664U 15026B   25340.91044156 -.00000229  00000+0  00000+0 0  9990",
        "tle_line2": "2 40664   0.0142  35.1874 0002782 235.3287  54.4203  1.00271227 38524"
      },
      "geometry": {
        "type": "Point",
        "coordinates": [
          110.45432339012906,
          0.027612582751444695
        ]
      }
    },
    {
      "type": "Feature",
      "properties": {
        "norad_id": 40874,
        "name": "INTELSAT 34 (IS-34)",
        "group": "intelsat",
        "lat": 0.008382568283482961,
        "lon": 133.71938986190216,
        "alt_km": 35784.643697278414,
        "timestamp": "2025-12-07T07:31:35.970786+00:00",
        "meta_object_name": "INTELSAT 34 (IS-34)",
        "meta_object_id": "2015-039A",
        "meta_epoch": "2025-12-06T18:32:13.695072",
        "meta_mean_motion": 1.00269269,
        "meta_eccentricity": 7.973e-05,
        "meta_inclination": 0.0124,
        "meta_ra_of_asc_node": 320.2324,
        "meta_arg_of_pericenter": 222.0969,
        "meta_mean_anomaly": 116.0343,
        "meta_ephemeris_type": 0,
        "meta_classification_type": "U",
        "meta_norad_cat_id": 40874,
        "meta_element_set_no": 999,
        "meta_rev_at_epoch": 3769,
        "meta_bstar": 0,
        "meta_mean_motion_dot": -2.79e-06,
        "meta_mean_motion_ddot": 0,
        "tle_line1": "1 40874U 15039A   25340.77238073 -.00000279  00000+0  00000+0 0  9999",
        "tle_line2": "2 40874   0.0124 320.2324 0000797 222.0969 116.0343  1.00269269 37699"
      },
      "geometry": {
        "type": "Point",
        "coordinates": [
          133.71938986190216,
          0.008382568283482961
        ]
      }
    }
  ]
}